{"type": "FeatureCollection", "features": [ {"type": "Feature", "properties": {"norad_id": 33492, "name": "GOSAT (IBUKI)", "group": "resource", "lat": -33.88267459773758, "lon": -100.45360514038849, "alt_km": 675.5811962559837, "timestamp": "2025-12-02T06:27:52.677754+00:00", "meta": {"OBJECT_NAME": "GOSAT (IBUKI)", "OBJECT_ID": "2009-002A", "EPOCH": "2025-12-01T19:40:25.008096", "MEAN_MOTION": 14.67545337, "ECCENTRICITY": 0.0001003, "INCLINATION": 98.0766, "RA_OF_ASC_NODE": 84.575, "ARG_OF_PERICENTER": 84.1946, "MEAN_ANOMALY": 275.9373, "EPHEMERIS_TYPE": 0, "CLASSIFICATION_TYPE": "U", "NORAD_CAT_ID": 33492, "ELEMENT_SET_NO": 999, "REV_AT_EPOCH": 90251, "BSTAR": 0.00018939, "MEAN_MOTION_DOT": 1.026e-05, "MEAN_MOTION_DDOT": 0}, "tle": {"line1": "1 33492U 09002A   25335.81973389  .00001026  00000+0  18939-3 0  9999", "line2": "2 33492  98.0766  84.5750 0001003  84.1946 275.9373 14.67545337902512"}}, "geometry": {"type": "Point", "coordinates": [-100.45360514038849, -33.88267459773758]}}, {"type": "Feature", "properties": {"norad_id": 35681, "name": "DEIMOS-1", "group": "resource", "lat": 13.654899358131429, "lon": 135.47321304484487, "alt_km": 646.2724758316699, "timestamp": "2025-12-02T06:27:52.677765+00:00", "meta": {"OBJECT_NAME": "DEIMOS-1", "OBJECT_ID": "2009-041A", "EPOCH": "2025-12-01T20:37:59.405376", "MEAN_MOTION": 14.74924599, "ECCENTRICITY": 0.0002661, "INCLINATION": 97.7145, "RA_OF_ASC_NODE": 136.97, "ARG_OF_PERICENTER": 99.2344, "MEAN_ANOMALY": 260.9167, "EPHEMERIS_TYPE": 0, "CLASSIFICATION_TYPE": "U", "NORAD_CAT_ID": 35681, "ELEMENT_SET_NO": 999, "REV_AT_EPOCH": 87779, "BSTAR": 0.00012651, "MEAN_MOTION_DOT": 8.02e-06, "MEAN_MOTION_DDOT": 0}, "tle": {"line1": "1 35681U 09041A   25335.85971534  .00000802  00000+0  12651-3 0  9994", "line2": "2 35681  97.7145 136.9700 0002661  99.2344 260.9167 14.74924599877793"}}, "geometry": {"type": "Point", "coordinates": [135.47321304484487, 13.654899358131429]}}, {"type": "Feature", "properties": {"norad_id": 35682, "name": "DUBAISAT-1", "group": "resource", "lat": -37.62074175104132, "lon": 113.30924057365812, "alt_km": 646.6339923552714, "timestamp": "2025-12-02T06:27:52.677776+00:00", "meta": {"OBJECT_NAME": "DUBAISAT-1", "OBJECT_ID": "2009-041B", "EPOCH": "2025-12-01T19:14:10.915872", "MEAN_MOTION": 14.74551985, "ECCENTRICITY": 0.0010249, "INCLINATION": 97.9785, "RA_OF_ASC_NODE": 106.6433, "ARG_OF_PERICENTER": 351.725, "MEAN_ANOMALY": 8.3788, "EPHEMERIS_TYPE": 0, "CLASSIFICATION_TYPE": "U", "NORAD_CAT_ID": 35682, "ELEMENT_SET_NO": 999, "REV_AT_EPOCH": 87600, "BSTAR": 0.00020872, "MEAN_MOTION_DOT": 1.34e-05, "MEAN_MOTION_DDOT": 0}, "tle": {"line1": "1 35682U 09041B   25335.80151523  .00001340  00000+0  20872-3 0  9990", "line2": "2 35682  97.9785 106.6433 0010249 351.7250   8.3788 14.74551985876007"}}, "geometry": {"type": "Point", "coordinates": [113.30924057365812, -37.62074175104132]}}, {"type": "Feature", "properties": {"norad_id": 35931, "name": "OCEANSAT-2", "group": "resource", "lat": 77.75861401722405, "lon": -63.86653901848688, "alt_km": 875.7984394613077, "timestamp": "2025-12-02T06:27:52.677787+00:00", "meta": {"OBJECT_NAME": "OCEANSAT-2", "OBJECT_ID": "2009-051A", "EPOCH": "2025-12-01T21:30:07.263360", "MEAN_MOTION": 13.99626857, "ECCENTRICITY": 0.0016683, "INCLINATION": 98.2233, "RA_OF_ASC_NODE": 337.5958, "ARG_OF_PERICENTER": 73.1373, "MEAN_ANOMALY": 287.1622, "EPHEMERIS_TYPE": 0, "CLASSIFICATION_TYPE": "U", "NORAD_CAT_ID": 35931, "ELEMENT_SET_NO": 999, "REV_AT_EPOCH": 85173, "BSTAR": -8.4591e-05, "MEAN_MOTION_DOT": -1.61e-06, "MEAN_MOTION_DDOT": 0}, "tle": {"line1": "1 35931U 09051A   25335.89591740 -.00000161  00000+0 -84591-4 0  9997", "line2": "2 35931  98.2233 337.5958 0016683  73.1373 287.1622 13.99626857851736"}}, "geometry": {"type": "Point", "coordinates": [-63.86653901848688, 77.75861401722405]}}, {"type": "Feature", "properties": {"norad_id": 35946, "name": "WORLDVIEW-2 (WV-2)", "group": "resource", "lat": -30.19206212414102, "lon": -137.4781305356845, "alt_km": 774.0957005364826, "timestamp": "2025-12-02T06:27:52.677798+00:00", "meta": {"OBJECT_NAME": "WORLDVIEW-2 (WV-2)", "OBJECT_ID": "2009-055A", "EPOCH": "2025-12-01T19:28:01.479072", "MEAN_MOTION": 14.37644233, "ECCENTRICITY": 0.0005442, "INCLINATION": 98.4773, "RA_OF_ASC_NODE": 47.0482, "ARG_OF_PERICENTER": 93.0033, "MEAN_ANOMALY": 267.1777, "EPHEMERIS_TYPE": 0, "CLASSIFICATION_TYPE": "U", "NORAD_CAT_ID": 35946, "ELEMENT_SET_NO": 999, "REV_AT_EPOCH": 84728, "BSTAR": 8.1032e-05, "MEAN_MOTION_DOT": 2e-06, "MEAN_MOTION_DDOT": 0}, "tle": {"line1": "1 35946U 09055A   25335.81112823  .00000200  00000+0  81032-4 0  9999", "line2": "2 35946  98.4773  47.0482 0005442  93.0033 267.1777 14.37644233847288"}}, "geometry": {"type": "Point", "coordinates": [-137.4781305356845, -30.19206212414102]}}, {"type": "Feature", "properties": {"norad_id": 36036, "name": "SMOS", "group": "resource", "lat": 12.695633291219375, "lon": -16.61164059834885, "alt_km": 760.4540920674026, "timestamp": "2025-12-02T06:27:52.677808+00:00", "meta": {"OBJECT_NAME": "SMOS", "OBJECT_ID": "2009-059A", "EPOCH": "2025-12-01T13:00:45.217728", "MEAN_MOTION": 14.39785738, "ECCENTRICITY": 0.00010587, "INCLINATION": 98.4385, "RA_OF_ASC_NODE": 160.7557, "ARG_OF_PERICENTER": 72.169, "MEAN_ANOMALY": 287.9613, "EPHEMERIS_TYPE": 0, "CLASSIFICATION_TYPE": "U", "NORAD_CAT_ID": 36036, "ELEMENT_SET_NO": 999, "REV_AT_EPOCH": 84501, "BSTAR": 0.00015570016, "MEAN_MOTION_DOT": 4.45e-06, "MEAN_MOTION_DDOT": 0}, "tle": {"line1": "1 36036U 09059A   25335.54219002  .00000445  00000+0  15570-3 0  9995", "line2": "2 36036  98.4385 160.7557 0001058  72.1690 287.9613 14.39785738845016"}}, "geometry": {"type": "Point", "coordinates": [-16.61164059834885, 12.695633291219375]}}, {"type": "Feature", "properties": {"norad_id": 36110, "name": "YAOGAN-7", "group": "resource", "lat": 3.1479315933452106, "lon": -142.38160396411428, "alt_km": 627.6373357611865, "timestamp": "2025-12-02T06:27:52.677818+00:00", "meta": {"OBJECT_NAME": "YAOGAN-7", "OBJECT_ID": "2009-069A", "EPOCH": "2025-12-01T15:49:27.275808", "MEAN_MOTION": 14.77704271, "ECCENTRICITY": 0.00238856, "INCLINATION": 98.0304, "RA_OF_ASC_NODE": 217.4556, "ARG_OF_PERICENTER": 318.6555, "MEAN_ANOMALY": 41.2846, "EPHEMERIS_TYPE": 0, "CLASSIFICATION_TYPE": "U", "NORAD_CAT_ID": 36110, "ELEMENT_SET_NO": 999, "REV_AT_EPOCH": 86045, "BSTAR": 0.00011513312, "MEAN_MOTION_DOT": 7.75e-06, "MEAN_MOTION_DDOT": 0}, "tle": {"line1": "1 36110U 09069A   25335.65934347  .00000775  00000+0  11513-3 0  9996", "line2": "2 36110  98.0304 217.4556 0023885 318.6555  41.2846 14.77704271860454"}}, "geometry": {"type": "Point", "coordinates": [-142.38160396411428, 3.1479315933452106]}}, {"type": "Feature", "properties": {"norad_id": 36605, "name": "TANDEM-X", "group": "resource", "lat": 49.46104842735622, "lon": 170.59665841750922, "alt_km": 502.9748875606656, "timestamp": "2025-12-02T06:27:52.677828+00:00", "meta": {"OBJECT_NAME": "TANDEM-X", "OBJECT_ID": "2010-030A", "EPOCH": "2025-12-01T15:40:02.616384", "MEAN_MOTION": 15.19150166, "ECCENTRICITY": 0.0001799, "INCLINATION": 97.4445, "RA_OF_ASC_NODE": 341.1948, "ARG_OF_PERICENTER": 94.6739, "MEAN_ANOMALY": 265.4701, "EPHEMERIS_TYPE": 0, "CLASSIFICATION_TYPE": "U", "NORAD_CAT_ID": 36605, "ELEMENT_SET_NO": 999, "REV_AT_EPOCH": 85665, "BSTAR": 8.3295316e-05, "MEAN_MOTION_DOT": 1.682e-05, "MEAN_MOTION_DDOT": 0}, "tle": {"line1": "1 36605U 10030A   25335.65280806  .00001682  00000+0  83295-4 0  9994", "line2": "2 36605  97.4445 341.1948 0001799  94.6739 265.4701 15.19150166856659"}}, "geometry": {"type": "Point", "coordinates": [170.59665841750922, 49.46104842735622]}}, {"type": "Feature", "properties": {"norad_id": 36795, "name": "CARTOSAT-2B", "group": "resource", "lat": -69.89441965269106, "lon": -176.31238094107746, "alt_km": 647.7367590557578, "timestamp": "2025-12-02T06:27:52.677839+00:00", "meta": {"OBJECT_NAME": "CARTOSAT-2B", "OBJECT_ID": "2010-035A", "EPOCH": "2025-12-01T21:12:44.741088", "MEAN_MOTION": 14.78759997, "ECCENTRICITY": 0.0012852, "INCLINATION": 97.7868, "RA_OF_ASC_NODE": 25.266, "ARG_OF_PERICENTER": 109.4317, "MEAN_ANOMALY": 250.8284, "EPHEMERIS_TYPE": 0, "CLASSIFICATION_TYPE": "U", "NORAD_CAT_ID": 36795, "ELEMENT_SET_NO": 999, "REV_AT_EPOCH": 83069, "BSTAR": 0.0001245, "MEAN_MOTION_DOT": 8.65e-06, "MEAN_MOTION_DDOT": 0}, "tle": {"line1": "1 36795U 10035A   25335.88385117  .00000865  00000+0  12450-3 0  9991", "line2": "2 36795  97.7868  25.2660 0012852 109.4317 250.8284 14.78759997830692"}}, "geometry": {"type": "Point", "coordinates": [-176.31238094107746, -69.89441965269106]}}, {"type": "Feature", "properties": {"norad_id": 36834, "name": "YAOGAN-10", "group": "resource", "lat": 65.9615812120625, "lon": -165.65677077238908, "alt_km": 607.6567639041523, "timestamp": "2025-12-02T06:27:52.677849+00:00", "meta": {"OBJECT_NAME": "YAOGAN-10", "OBJECT_ID": "2010-038A", "EPOCH": "2025-12-01T20:48:19.237248", "MEAN_MOTION": 14.84543351, "ECCENTRICITY": 0.0001518, "INCLINATION": 97.9151, "RA_OF_ASC_NODE": 355.7691, "ARG_OF_PERICENTER": 85.4921, "MEAN_ANOMALY": 37.5959, "EPHEMERIS_TYPE": 0, "CLASSIFICATION_TYPE": "U", "NORAD_CAT_ID": 36834, "ELEMENT_SET_NO": 999, "REV_AT_EPOCH": 82792, "BSTAR": 0.00010849, "MEAN_MOTION_DOT": 8.61e-06, "MEAN_MOTION_DDOT": 0}, "tle": {"line1": "1 36834U 10038A   25335.86688932  .00000861  00000+0  10849-3 0  9993", "line2": "2 36834  97.9151 355.7691 0001518  85.4921  37.5959 14.84543351827922"}}, "geometry": {"type": "Point", "coordinates": [-165.65677077238908, 65.9615812120625]}}]}